{
  "type": "FeatureCollection",
  "features": [
    {
      "type": "Feature",
      "properties": {
        "norad_id": 38060,
        "name": "COSMOS 2251 DEB",
        "group": "cosmos-2251-debris",
        "lat": 73.42126049401779,
        "lon": -8.977660012558674,
        "alt_km": 655.4890107099818,
        "timestamp": "2025-12-22T05:49:03.899305+00:00",
        "meta_object_name": "COSMOS 2251 DEB",
        "meta_object_id": "1993-036BRS",
        "meta_epoch": "2025-12-21T01:33:01.988640",
        "meta_mean_motion": 14.63900324,
        "meta_eccentricity": 0.00584879,
        "meta_inclination": 74.0436,
        "meta_ra_of_asc_node": 279.3269,
        "meta_arg_of_pericenter": 23.1556,
        "meta_mean_anomaly": 337.2227,
        "meta_ephemeris_type": 0,
        "meta_classification_type": "U",
        "meta_norad_cat_id": 38060,
        "meta_element_set_no": 999,
        "meta_rev_at_epoch": 72086,
        "meta_bstar": 0.00036511571,
        "meta_mean_motion_dot": 1.926e-05,
        "meta_mean_motion_ddot": 0,
        "tle_line1": "1 38060U 93036BRS 25355.06460635  .00001926  00000+0  36512-3 0  9995",
        "tle_line2": "2 38060  74.0436 279.3269 0058487  23.1556 337.2227 14.63900324720866"
      },
      "geometry": {
        "type": "Point",
        "coordinates": [
          -8.977660012558674,
          73.42126049401779
        ]
      }
    },
    {
      "type": "Feature",
      "properties": {
        "norad_id": 38062,
        "name": "COSMOS 2251 DEB",
        "group": "cosmos-2251-debris",
        "lat": 37.67821836728783,
        "lon": -75.93281415574468,
        "alt_km": 569.4797849628085,
        "timestamp": "2025-12-22T05:49:03.899315+00:00",
        "meta_object_name": "COSMOS 2251 DEB",
        "meta_object_id": "1993-036BRU",
        "meta_epoch": "2025-12-20T12:40:12.328608",
        "meta_mean_motion": 14.95206267,
        "meta_eccentricity": 0.00129431,
        "meta_inclination": 74.0088,
        "meta_ra_of_asc_node": 274.7346,
        "meta_arg_of_pericenter": 42.7602,
        "meta_mean_anomaly": 131.9089,
        "meta_ephemeris_type": 0,
        "meta_classification_type": "U",
        "meta_norad_cat_id": 38062,
        "meta_element_set_no": 999,
        "meta_rev_at_epoch": 63146,
        "meta_bstar": 0.0014745207,
        "meta_mean_motion_dot": 0.00016237,
        "meta_mean_motion_ddot": 0,
        "tle_line1": "1 38062U 93036BRU 25354.52792047  .00016237  00000+0  14745-2 0  9996",
        "tle_line2": "2 38062  74.0088 274.7346 0012943  42.7602 131.9089 14.95206267631464"
      },
      "geometry": {
        "type": "Point",
        "coordinates": [
          -75.93281415574468,
          37.67821836728783
        ]
      }
    },
    {
      "type": "Feature",
      "properties": {
        "norad_id": 38064,
        "name": "COSMOS 2251 DEB",
        "group": "cosmos-2251-debris",
        "lat": 67.21548552304456,
        "lon": 149.10082851211823,
        "alt_km": 727.0098739692785,
        "timestamp": "2025-12-22T05:49:03.899325+00:00",
        "meta_object_name": "COSMOS 2251 DEB",
        "meta_object_id": "1993-036BRW",
        "meta_epoch": "2025-12-21T14:38:27.144960",
        "meta_mean_motion": 14.56367522,
        "meta_eccentricity": 0.0047142,
        "meta_inclination": 74.0231,
        "meta_ra_of_asc_node": 107.2956,
        "meta_arg_of_pericenter": 225.3304,
        "meta_mean_anomaly": 134.4015,
        "meta_ephemeris_type": 0,
        "meta_classification_type": "U",
        "meta_norad_cat_id": 38064,
        "meta_element_set_no": 999,
        "meta_rev_at_epoch": 71994,
        "meta_bstar": 0.00076532,
        "meta_mean_motion_dot": 3.417e-05,
        "meta_mean_motion_ddot": 0,
        "tle_line1": "1 38064U 93036BRW 25355.61003640  .00003417  00000+0  76532-3 0  9992",
        "tle_line2": "2 38064  74.0231 107.2956 0047142 225.3304 134.4015 14.56367522719946"
      },
      "geometry": {
        "type": "Point",
        "coordinates": [
          149.10082851211823,
          67.21548552304456
        ]
      }
    },
    {
      "type": "Feature",
      "properties": {
        "norad_id": 38067,
        "name": "COSMOS 2251 DEB",
        "group": "cosmos-2251-debris",
        "lat": -36.71179573039915,
        "lon": 88.65695148452839,
        "alt_km": 744.6343731970364,
        "timestamp": "2025-12-22T05:49:03.899335+00:00",
        "meta_object_name": "COSMOS 2251 DEB",
        "meta_object_id": "1993-036BRZ",
        "meta_epoch": "2025-12-20T00:18:38.290752",
        "meta_mean_motion": 14.61151533,
        "meta_eccentricity": 0.00696951,
        "meta_inclination": 74.0171,
        "meta_ra_of_asc_node": 260.5817,
        "meta_arg_of_pericenter": 46.2502,
        "meta_mean_anomaly": 329.5601,
        "meta_ephemeris_type": 0,
        "meta_classification_type": "U",
        "meta_norad_cat_id": 38067,
        "meta_element_set_no": 999,
        "meta_rev_at_epoch": 62662,
        "meta_bstar": 0.00024256948,
        "meta_mean_motion_dot": 1.204e-05,
        "meta_mean_motion_ddot": 0,
        "tle_line1": "1 38067U 93036BRZ 25354.01294318  .00001204  00000+0  24257-3 0  9991",
        "tle_line2": "2 38067  74.0171 260.5817 0069695  46.2502 329.5601 14.61151533626627"
      },
      "geometry": {
        "type": "Point",
        "coordinates": [
          88.65695148452839,
          -36.71179573039915
        ]
      }
    },
    {
      "type": "Feature",
      "properties": {
        "norad_id": 38068,
        "name": "COSMOS 2251 DEB",
        "group": "cosmos-2251-debris",
        "lat": -21.69579281398831,
        "lon": 117.34373748377737,
        "alt_km": 793.8484052140284,
        "timestamp": "2025-12-22T05:49:03.899345+00:00",
        "meta_object_name": "COSMOS 2251 DEB",
        "meta_object_id": "1993-036BSA",
        "meta_epoch": "2025-11-26T00:12:22.263264",
        "meta_mean_motion": 14.35960004,
        "meta_eccentricity": 0.00240903,
        "meta_inclination": 74.0219,
        "meta_ra_of_asc_node": 338.9788,
        "meta_arg_of_pericenter": 72.1007,
        "meta_mean_anomaly": 288.2769,
        "meta_ephemeris_type": 0,
        "meta_classification_type": "U",
        "meta_norad_cat_id": 38068,
        "meta_element_set_no": 999,
        "meta_rev_at_epoch": 66406,
        "meta_bstar": 0.00028750999,
        "meta_mean_motion_dot": 8.11e-06,
        "meta_mean_motion_ddot": 0,
        "tle_line1": "1 38068U 93036BSA 25330.00859101  .00000811  00000+0  28751-3 0  9998",
        "tle_line2": "2 38068  74.0219 338.9788 0024090  72.1007 288.2769 14.35960004664064"
      },
      "geometry": {
        "type": "Point",
        "coordinates": [
          117.34373748377737,
          -21.69579281398831
        ]
      }
    },
    {
      "type": "Feature",
      "properties": {
        "norad_id": 38197,
        "name": "COSMOS 2251 DEB",
        "group": "cosmos-2251-debris",
        "lat": 55.24019768808007,
        "lon": 2.9093332179107874,
        "alt_km": 720.4625578797422,
        "timestamp": "2025-12-22T05:49:03.899355+00:00",
        "meta_object_name": "COSMOS 2251 DEB",
        "meta_object_id": "1993-036BSM",
        "meta_epoch": "2025-12-21T16:31:05.951712",
        "meta_mean_motion": 14.74412737,
        "meta_eccentricity": 0.012488,
        "meta_inclination": 73.938,
        "meta_ra_of_asc_node": 339.4684,
        "meta_arg_of_pericenter": 214.7346,
        "meta_mean_anomaly": 144.563,
        "meta_ephemeris_type": 0,
        "meta_classification_type": "U",
        "meta_norad_cat_id": 38197,
        "meta_element_set_no": 999,
        "meta_rev_at_epoch": 85887,
        "meta_bstar": 0.0023695,
        "meta_mean_motion_dot": 0.00017843,
        "meta_mean_motion_ddot": 0,
        "tle_line1": "1 38197U 93036BSM 25355.68826333  .00017843  00000+0  23695-2 0  9997",
        "tle_line2": "2 38197  73.9380 339.4684 0124880 214.7346 144.5630 14.74412737858876"
      },
      "geometry": {
        "type": "Point",
        "coordinates": [
          2.9093332179107874,
          55.24019768808007
        ]
      }
    },
    {
      "type": "Feature",
      "properties": {
        "norad_id": 38199,
        "name": "COSMOS 2251 DEB",
        "group": "cosmos-2251-debris",
        "lat": 66.16173538172609,
        "lon": 87.21188588886585,
        "alt_km": 1053.8702971888388,
        "timestamp": "2025-12-22T05:49:03.899365+00:00",
        "meta_object_name": "COSMOS 2251 DEB",
        "meta_object_id": "1993-036BSP",
        "meta_epoch": "2025-12-21T11:53:06.796320",
        "meta_mean_motion": 13.64805558,
        "meta_eccentricity": 0.03700621,
        "meta_inclination": 73.9558,
        "meta_ra_of_asc_node": 47.8032,
        "meta_arg_of_pericenter": 332.5446,
        "meta_mean_anomaly": 25.6532,
        "meta_ephemeris_type": 0,
        "meta_classification_type": "U",
        "meta_norad_cat_id": 38199,
        "meta_element_set_no": 999,
        "meta_rev_at_epoch": 61141,
        "meta_bstar": 0.00052194647,
        "meta_mean_motion_dot": 6.47e-06,
        "meta_mean_motion_ddot": 0,
        "tle_line1": "1 38199U 93036BSP 25355.49521755  .00000647  00000+0  52195-3 0  9990",
        "tle_line2": "2 38199  73.9558  47.8032 0370062 332.5446  25.6532 13.64805558611419"
      },
      "geometry": {
        "type": "Point",
        "coordinates": [
          87.21188588886585,
          66.16173538172609
        ]
      }
    }
  ]
}